BEIDOU-2 G3             
1 36590U 10024A   26178.18040257 -.00000128  00000+0  00000+0 0  9991
2 36590   4.5396  61.4794 0008086 355.9218   2.5185  1.00271170 58865
BADR-5                  
1 36592U 10025A   26178.52716883  .00000165  00000+0  00000+0 0  9997
2 36592   0.0493 137.2183 0003984  50.4773 308.2369  1.00267783 53326
COMS 1                  
1 36744U 10032A   26177.95757811  .00000041  00000+0  00000+0 0  9999
2 36744   4.8297  75.2434 0011917  12.9181 206.1281  0.99166709 51184
ARABSAT-5A              
1 36745U 10032B   26178.52716883  .00000165  00000+0  00000+0 0  9995
2 36745   0.0720  53.2620 0005657  59.9323  22.7039  1.00272162 58757
ECHOSTAR 15             
1 36792U 10034A   26178.49759939  .00000011  00000+0  00000+0 0  9994
2 36792   0.0107  25.8610 0002229  56.2855 253.7831  1.00272509 58429
BEIDOU-2 IGSO-1         
1 36828U 10036A   26177.90040617 -.00000057  00000+0  00000+0 0  9998
2 36828  54.3050 162.8716 0059014 225.3100 318.5305  1.00269877 58197
NILESAT 201             
1 36830U 10037A   26178.37715111 -.00000046  00000+0  00000+0 0  9990
2 36830   0.0389 133.5304 0005211 347.4251 283.3082  1.00271485 58474
RASCOM-QAF 1R           
1 36831U 10037B   26178.30782948  .00000030  00000+0  00000+0 0  9998
2 36831   0.0226  72.7365 0006577  17.1304 299.2636  1.00272136 58400
AEHF-1 (USA 214)        
1 36868U 10039A   26178.31320284  .00000151  00000+0  00000+0 0  9996
2 36868   8.2454  67.9108 0004773  21.6330 328.6622  1.00267034 53755
XM-5                    
1 37185U 10053A   26178.42704338 -.00000012  00000+0  00000+0 0  9990
2 37185   0.0656 270.6957 0002498 281.5594 121.8247  1.00273245 57580
BSAT-3B                 
1 37207U 10056B   26178.48169678 -.00000338  00000+0  00000+0 0  9997
2 37207   0.0723 243.2945 0002030 281.2521  34.3016  1.00272149 52200
BEIDOU-2 G4             
1 37210U 10057A   26178.52267039 -.00000104  00000+0  00000+0 0  9998
2 37210   3.6727  68.8922 0004787 192.6091   2.2736  1.00271539 57391
SKYTERRA 1              
1 37218U 10061A   26178.36225472 -.00000112  00000+0  00000+0 0  9997
2 37218   5.1463  50.8444 0002423  25.6110 228.1197  1.00273012 57292
HYLAS 1                 
1 37237U 10065A   26178.30999615  .00000095  00000+0  00000+0 0  9992
2 37237   5.6687  72.8994 0001175 333.6675 354.2512  1.00271488  6988
INTELSAT 17 (IS-17)     
1 37238U 10065B   26178.10645733  .00000010  00000+0  00000+0 0  9997
2 37238   0.0115  76.4921 0002351  19.9904 283.0606  1.00270844 53340
BEIDOU-2 IGSO-2         
1 37256U 10068A   26175.67652892 -.00000223  00000+0  00000+0 0  9990
2 37256  47.5326 271.7373 0056042 213.3814 139.3528  1.00281062 56867
EUTELSAT KA-SAT 9A      
1 37258U 10069A   26178.52290617  .00000073  00000+0  00000+0 0  9995
2 37258   0.0603  11.3939 0003753 121.0201 340.4613  1.00269892 44115
HISPASAT 30W-5          
1 37264U 10070A   26178.34373514 -.00000204  00000+0  00000+0 0  9999
2 37264   0.0373 125.1186 0005771 344.1397 259.9361  1.00273103 53282
KOREASAT 6              
1 37265U 10070B   26178.13100160  .00000000  00000+0  00000+0 0  9995
2 37265   0.0272  21.9730 0002733  85.6861  14.6226  1.00270588 56875
BEIDOU-2 IGSO-3         
1 37384U 11013A   26176.54644699 -.00000187  00000+0  00000+0 0  9995
2 37384  62.4191  40.0714 0035057 184.1159 353.6243  1.00266124 55744
INTELSAT 28 (IS-28)     
1 37392U 11016A   26178.51449947 -.00000215  00000+0  00000+0 0  9997
2 37392   1.8324  82.5054 0004033  12.9430 333.6620  1.00271428 53384
YAHSAT 1A               
1 37393U 11016B   26178.38885117  .00000000  00000+0  00000+0 0  9997
2 37393   0.0236  25.5902 0003596  78.8508   3.5378  1.00268607 42518
SBIRS GEO-1 (USA 230)   
1 37481U 11019A   26177.24814126  .00000106  00000+0  00000+0 0  9991
2 37481   4.5553  53.1191 0001915  36.2201 326.1667  1.00272337 55496
TELSTAR 14R             
1 37602U 11021A   26178.50860610 -.00000268  00000+0  00000+0 0  9998
2 37602   0.0445  80.4918 0002408 351.3854 323.8479  1.00271342 55934
GSAT-8                  
1 37605U 11022A   26178.46068311  .00000094  00000+0  00000+0 0  9991
2 37605   2.1572  81.7093 0001632 183.7875 230.9933  1.00273320 53329
ST-2                    
1 37606U 11022B   26178.46726980  .00000000  00000+0  00000+0 0  9992
2 37606   0.0238  17.9006 0001797  84.5680  69.3381  1.00271474 55382
ZHONGXING-10            
1 37677U 11026A   26178.60935490 -.00000178  00000+0  00000+0 0  9995
2 37677   1.0735  84.1079 0003791   8.9762 127.5235  1.00272942 55102
SES-3                   
1 37748U 11035A   26178.50071940 -.00000091  00000+0  00000+0 0  9998
2 37748   1.3530  82.9933 0002506   1.5020 268.3668  1.00272483 54698
KAZSAT-2                
1 37749U 11035B   26178.14419692  .00000000  00000+0  00000+0 0  9998
2 37749   0.0118  31.4205 0001912 119.0453 263.2039  1.00267537 53490
BEIDOU-2 IGSO-4         
1 37763U 11038A   26177.93983405  .00000024  00000+0  00000+0 0  9997
2 37763  54.6031 165.5857 0159647 231.4802 310.1180  1.00284006 54741
ASTRA 1N                
1 37775U 11041A   26178.31103616  .00000131  00000+0  00000+0 0  9994
2 37775   0.0820  38.2103 0005938  57.1344 311.2293  1.00270683 44621
BSAT-3C (JCSAT-110R)    
1 37776U 11041B   26178.48169678 -.00000339  00000+0  00000+0 0  9994
2 37776   0.0205 327.6153 0000423 168.0710  63.2734  1.00271787 50573
