OBJECT_NAME,OBJECT_ID,EPOCH,MEAN_MOTION,ECCENTRICITY,INCLINATION,RA_OF_ASC_NODE,ARG_OF_PERICENTER,MEAN_ANOMALY,EPHEMERIS_TYPE,CLASSIFICATION_TYPE,NORAD_CAT_ID,ELEMENT_SET_NO,REV_AT_EPOCH,BSTAR,MEAN_MOTION_DOT,MEAN_MOTION_DDOT
BEIDOU-2 G3,2010-024A,2026-06-27T04:19:46.782048,1.00271170,.00080865,4.5396,61.4794,355.9218,2.5185,0,U,36590,999,5886,0,-.128E-5,0
BADR-5,2010-025A,2026-06-27T12:39:07.386912,1.00267783,.0003984,0.0493,137.2183,50.4773,308.2369,0,U,36592,999,5332,0,.165E-5,0
COMS 1,2010-032A,2026-06-26T22:58:54.748704,0.99166709,.00119179,4.8297,75.2434,12.9181,206.1281,0,U,36744,999,5118,0,.41E-6,0
ARABSAT-5A,2010-032B,2026-06-27T12:39:07.386912,1.00272162,.0005657,0.0720,53.2620,59.9323,22.7039,0,U,36745,999,5875,0,.165E-5,0
ECHOSTAR 15,2010-034A,2026-06-27T11:56:32.587296,1.00272509,.0002229,0.0107,25.8610,56.2855,253.7831,0,U,36792,999,5842,0,.11E-6,0
BEIDOU-2 IGSO-1,2010-036A,2026-06-26T21:36:35.093088,1.00269877,.0059014,54.3050,162.8716,225.3100,318.5305,0,U,36828,999,5819,0,-.57E-6,0
NILESAT 201,2010-037A,2026-06-27T09:03:05.855904,1.00271485,.0005211,0.0389,133.5304,347.4251,283.3082,0,U,36830,999,5847,0,-.46E-6,0
RASCOM-QAF 1R,2010-037B,2026-06-27T07:23:16.467072,1.00272136,.0006577,0.0226,72.7365,17.1304,299.2636,0,U,36831,999,5840,0,.3E-6,0
AEHF-1 (USA 214),2010-039A,2026-06-27T07:31:00.725376,1.00267034,.0004773,8.2454,67.9108,21.6330,328.6622,0,U,36868,999,5375,0,.151E-5,0
XM-5,2010-053A,2026-06-27T10:14:56.548032,1.00273245,.0002498,0.0656,270.6957,281.5594,121.8247,0,U,37185,999,5758,0,-.12E-6,0
BSAT-3B,2010-056B,2026-06-27T11:33:38.601792,1.00272149,.000203,0.0723,243.2945,281.2521,34.3016,0,U,37207,999,5220,0,-.338E-5,0
BEIDOU-2 G4,2010-057A,2026-06-27T12:32:38.721696,1.00271539,.0004787,3.6727,68.8922,192.6091,2.2736,0,U,37210,999,5739,0,-.104E-5,0
SKYTERRA 1,2010-061A,2026-06-27T08:41:38.807808,1.00273012,.0002423,5.1463,50.8444,25.6110,228.1197,0,U,37218,999,5729,0,-.112E-5,0
HYLAS 1,2010-065A,2026-06-27T07:26:23.667360,1.00271488,.0001175,5.6687,72.8994,333.6675,354.2512,0,U,37237,999,698,0,.95E-6,0
INTELSAT 17 (IS-17),2010-065B,2026-06-27T02:33:17.913312,1.00270844,.00023518,0.0115,76.4921,19.9904,283.0606,0,U,37238,999,5334,0,.1E-6,0
BEIDOU-2 IGSO-2,2010-068A,2026-06-24T16:14:12.098688,1.00281062,.00560425,47.5326,271.7373,213.3814,139.3528,0,U,37256,999,5686,0,-.223E-5,0
EUTELSAT KA-SAT 9A,2010-069A,2026-06-27T12:32:59.093088,1.00269892,.0003753,0.0603,11.3939,121.0201,340.4613,0,U,37258,999,4411,0,.73E-6,0
HISPASAT 30W-5,2010-070A,2026-06-27T08:14:58.716096,1.00273103,.0005771,0.0373,125.1186,344.1397,259.9361,0,U,37264,999,5328,0,-.204E-5,0
KOREASAT 6,2010-070B,2026-06-27T03:08:38.538240,1.00270588,.0002733,0.0272,21.9730,85.6861,14.6226,0,U,37265,999,5687,0,0,0
BEIDOU-2 IGSO-3,2011-013A,2026-06-25T13:06:53.019936,1.00266124,.00350576,62.4191,40.0714,184.1159,353.6243,0,U,37384,999,5574,0,-.187E-5,0
INTELSAT 28 (IS-28),2011-016A,2026-06-27T12:20:52.754208,1.00271428,.0004033,1.8324,82.5054,12.9430,333.6620,0,U,37392,999,5338,0,-.215E-5,0
YAHSAT 1A,2011-016B,2026-06-27T09:19:56.741088,1.00268607,.0003596,0.0236,25.5902,78.8508,3.5378,0,U,37393,999,4251,0,0,0
SBIRS GEO-1 (USA 230),2011-019A,2026-06-26T05:57:19.404864,1.00272337,.0001915,4.5553,53.1191,36.2201,326.1667,0,U,37481,999,5549,0,.106E-5,0
TELSTAR 14R,2011-021A,2026-06-27T12:12:23.567040,1.00271342,.0002408,0.0445,80.4918,351.3854,323.8479,0,U,37602,999,5593,0,-.268E-5,0
GSAT-8,2011-022A,2026-06-27T11:03:23.020704,1.00273320,.0001632,2.1572,81.7093,183.7875,230.9933,0,U,37605,999,5332,0,.94E-6,0
ST-2,2011-022B,2026-06-27T11:12:52.110720,1.00271474,.0001797,0.0238,17.9006,84.5680,69.3381,0,U,37606,999,5538,0,0,0
ZHONGXING-10,2011-026A,2026-06-27T14:37:28.263360,1.00272942,.0003791,1.0735,84.1079,8.9762,127.5235,0,U,37677,999,5510,0,-.178E-5,0
SES-3,2011-035A,2026-06-27T12:01:02.156160,1.00272483,.0002506,1.3530,82.9933,1.5020,268.3668,0,U,37748,999,5469,0,-.91E-6,0
KAZSAT-2,2011-035B,2026-06-27T03:27:38.613888,1.00267537,.00019126,0.0118,31.4205,119.0453,263.2039,0,U,37749,999,5349,0,0,0
BEIDOU-2 IGSO-4,2011-038A,2026-06-26T22:33:21.661920,1.00284006,.01596472,54.6031,165.5857,231.4802,310.1180,0,U,37763,999,5474,0,.24E-6,0
ASTRA 1N,2011-041A,2026-06-27T07:27:53.524224,1.00270683,.0005938,0.0820,38.2103,57.1344,311.2293,0,U,37775,999,4462,0,.131E-5,0
BSAT-3C (JCSAT-110R),2011-041B,2026-06-27T11:33:38.601792,1.00271787,.0000423,0.0205,327.6153,168.0710,63.2734,0,U,37776,999,5057,0,-.339E-5,0
